<?xml version="1.0" encoding="UTF-8"?><gpx creator="Wikiloc - https://www.wikiloc.com" version="1.1" xmlns="http://www.topografix.com/GPX/1/1" xmlns:xsi="http://www.w3.org/2001/XMLSchema-instance" xsi:schemaLocation="http://www.topografix.com/GPX/1/1 http://www.topografix.com/GPX/1/1/gpx.xsd"><metadata><name>Wikiloc - 170615 Camino Santiago en Rep Checa. Praga - Radotin</name><author><name>caminante500</name><link href="https://www.wikiloc.com/wikiloc/user.do?id=199306"><text>caminante500 on Wikiloc</text></link></author><link href="https://www.wikiloc.com/hiking-trails/170615-camino-santiago-en-rep-checa-praga-radotin-20815688"><text>170615 Camino Santiago en Rep Checa. Praga - Radotin on Wikiloc</text></link><time>2017-06-15T10:13:26Z</time></metadata><wpt lat="50.088259" lon="14.424923"><ele>192.8</ele><time>2017-06-14T17:11:44Z</time><name>002</name><cmt></cmt><desc></desc></wpt><wpt lat="50.047440" lon="14.408727"><ele>205.4</ele><time>2017-06-15T07:04:13Z</time><name>003</name><cmt></cmt><desc></desc></wpt><wpt lat="49.986021" lon="14.364604"><ele>210.1</ele><time>2017-06-15T10:12:24Z</time><name>004</name><cmt></cmt><desc></desc></wpt><trk><name>170615 Camino Santiago en Rep Checa. Praga - Radotin - Wikil...</name><cmt></cmt><desc></desc><trkseg><trkpt lat="50.088122" lon="14.424609"><ele>203.495</ele><time>2017-06-15T05:26:56Z</time></trkpt><trkpt lat="50.088028" lon="14.423418"><ele>198.649</ele><time>2017-06-15T05:28:25Z</time></trkpt><trkpt lat="50.088054" lon="14.423194"><ele>193.823</ele><time>2017-06-15T05:28:41Z</time></trkpt><trkpt lat="50.088037" lon="14.422855"><ele>182.708</ele><time>2017-06-15T05:28:58Z</time></trkpt><trkpt lat="50.087840" lon="14.422628"><ele>171.231</ele><time>2017-06-15T05:29:16Z</time></trkpt><trkpt lat="50.087477" lon="14.421423"><ele>179.449</ele><time>2017-06-15T05:30:18Z</time></trkpt><trkpt lat="50.087227" lon="14.421040"><ele>190.427</ele><time>2017-06-15T05:30:45Z</time></trkpt><trkpt lat="50.086853" lon="14.420696"><ele>183.270</ele><time>2017-06-15T05:31:29Z</time></trkpt><trkpt lat="50.086833" lon="14.420442"><ele>184.734</ele><time>2017-06-15T05:32:06Z</time></trkpt><trkpt lat="50.086902" lon="14.420467"><ele>184.255</ele><time>2017-06-15T05:34:48Z</time></trkpt><trkpt lat="50.086740" lon="14.420405"><ele>209.257</ele><time>2017-06-15T05:34:57Z</time></trkpt><trkpt lat="50.086647" lon="14.420159"><ele>210.617</ele><time>2017-06-15T05:35:14Z</time></trkpt><trkpt lat="50.086535" lon="14.419925"><ele>206.393</ele><time>2017-06-15T05:35:34Z</time></trkpt><trkpt lat="50.086309" lon="14.419001"><ele>182.365</ele><time>2017-06-15T05:36:25Z</time></trkpt><trkpt lat="50.086174" lon="14.418778"><ele>179.421</ele><time>2017-06-15T05:39:18Z</time></trkpt><trkpt lat="50.086086" lon="14.418821"><ele>209.708</ele><time>2017-06-15T05:40:05Z</time></trkpt><trkpt lat="50.086052" lon="14.418841"><ele>211.671</ele><time>2017-06-15T05:40:32Z</time></trkpt><trkpt lat="50.086053" lon="14.418901"><ele>221.769</ele><time>2017-06-15T05:41:01Z</time></trkpt><trkpt lat="50.086026" lon="14.418887"><ele>230.397</ele><time>2017-06-15T05:41:21Z</time></trkpt><trkpt lat="50.086039" lon="14.418980"><ele>218.350</ele><time>2017-06-15T05:42:12Z</time></trkpt><trkpt lat="50.086061" lon="14.418922"><ele>208.794</ele><time>2017-06-15T05:43:11Z</time></trkpt><trkpt lat="50.086019" lon="14.418792"><ele>206.815</ele><time>2017-06-15T05:44:47Z</time></trkpt><trkpt lat="50.086038" lon="14.418754"><ele>205.867</ele><time>2017-06-15T05:45:10Z</time></trkpt><trkpt lat="50.086065" lon="14.418722"><ele>199.197</ele><time>2017-06-15T05:45:28Z</time></trkpt><trkpt lat="50.085994" lon="14.418667"><ele>186.674</ele><time>2017-06-15T05:45:47Z</time></trkpt><trkpt lat="50.086143" lon="14.417089"><ele>181.856</ele><time>2017-06-15T05:47:33Z</time></trkpt><trkpt lat="50.086176" lon="14.416546"><ele>176.021</ele><time>2017-06-15T05:48:03Z</time></trkpt><trkpt lat="50.086126" lon="14.416468"><ele>172.608</ele><time>2017-06-15T05:48:20Z</time></trkpt><trkpt lat="50.086244" lon="14.416075"><ele>164.039</ele><time>2017-06-15T05:48:58Z</time></trkpt><trkpt lat="50.086267" lon="14.415950"><ele>157.727</ele><time>2017-06-15T05:49:10Z</time></trkpt><trkpt lat="50.086169" lon="14.415785"><ele>158.745</ele><time>2017-06-15T05:49:26Z</time></trkpt><trkpt lat="50.086169" lon="14.414266"><ele>173.628</ele><time>2017-06-15T05:50:53Z</time></trkpt><trkpt lat="50.086290" lon="14.414273"><ele>194.342</ele><time>2017-06-15T05:53:04Z</time></trkpt><trkpt lat="50.086265" lon="14.412842"><ele>195.223</ele><time>2017-06-15T05:54:45Z</time></trkpt><trkpt lat="50.086490" lon="14.411211"><ele>199.165</ele><time>2017-06-15T05:56:13Z</time></trkpt><trkpt lat="50.086797" lon="14.408790"><ele>197.225</ele><time>2017-06-15T05:58:29Z</time></trkpt><trkpt lat="50.085247" lon="14.408501"><ele>200.023</ele><time>2017-06-15T06:03:09Z</time></trkpt><trkpt lat="50.084092" lon="14.408398"><ele>177.983</ele><time>2017-06-15T06:05:23Z</time></trkpt><trkpt lat="50.084050" lon="14.408213"><ele>183.711</ele><time>2017-06-15T06:05:59Z</time></trkpt><trkpt lat="50.083939" lon="14.408182"><ele>183.208</ele><time>2017-06-15T06:06:19Z</time></trkpt><trkpt lat="50.083703" lon="14.408069"><ele>178.924</ele><time>2017-06-15T06:07:32Z</time></trkpt><trkpt lat="50.083424" lon="14.408393"><ele>182.352</ele><time>2017-06-15T06:07:59Z</time></trkpt><trkpt lat="50.083326" lon="14.408361"><ele>187.190</ele><time>2017-06-15T06:08:07Z</time></trkpt><trkpt lat="50.083153" lon="14.408285"><ele>186.673</ele><time>2017-06-15T06:08:24Z</time></trkpt><trkpt lat="50.082531" lon="14.407955"><ele>180.337</ele><time>2017-06-15T06:09:16Z</time></trkpt><trkpt lat="50.082118" lon="14.407857"><ele>190.418</ele><time>2017-06-15T06:09:47Z</time></trkpt><trkpt lat="50.081987" lon="14.407712"><ele>191.450</ele><time>2017-06-15T06:10:06Z</time></trkpt><trkpt lat="50.081951" lon="14.407910"><ele>195.770</ele><time>2017-06-15T06:10:25Z</time></trkpt><trkpt lat="50.081814" lon="14.407951"><ele>190.993</ele><time>2017-06-15T06:10:43Z</time></trkpt><trkpt lat="50.081550" lon="14.407933"><ele>173.665</ele><time>2017-06-15T06:11:10Z</time></trkpt><trkpt lat="50.081046" lon="14.408053"><ele>176.021</ele><time>2017-06-15T06:11:45Z</time></trkpt><trkpt lat="50.080760" lon="14.407997"><ele>171.708</ele><time>2017-06-15T06:12:25Z</time></trkpt><trkpt lat="50.079294" lon="14.408147"><ele>193.841</ele><time>2017-06-15T06:14:39Z</time></trkpt><trkpt lat="50.077345" lon="14.408146"><ele>177.069</ele><time>2017-06-15T06:17:56Z</time></trkpt><trkpt lat="50.077179" lon="14.408340"><ele>183.297</ele><time>2017-06-15T06:18:22Z</time></trkpt><trkpt lat="50.077023" lon="14.408353"><ele>182.320</ele><time>2017-06-15T06:18:41Z</time></trkpt><trkpt lat="50.076789" lon="14.408420"><ele>176.094</ele><time>2017-06-15T06:19:04Z</time></trkpt><trkpt lat="50.076492" lon="14.408533"><ele>178.445</ele><time>2017-06-15T06:19:26Z</time></trkpt><trkpt lat="50.076262" lon="14.408708"><ele>190.037</ele><time>2017-06-15T06:19:44Z</time></trkpt><trkpt lat="50.075859" lon="14.408937"><ele>178.437</ele><time>2017-06-15T06:20:23Z</time></trkpt><trkpt lat="50.075679" lon="14.409038"><ele>182.738</ele><time>2017-06-15T06:20:33Z</time></trkpt><trkpt lat="50.075523" lon="14.409163"><ele>180.370</ele><time>2017-06-15T06:20:52Z</time></trkpt><trkpt lat="50.075448" lon="14.409018"><ele>180.317</ele><time>2017-06-15T06:21:09Z</time></trkpt><trkpt lat="50.074317" lon="14.409691"><ele>189.008</ele><time>2017-06-15T06:22:22Z</time></trkpt><trkpt lat="50.074233" lon="14.409978"><ele>189.525</ele><time>2017-06-15T06:22:40Z</time></trkpt><trkpt lat="50.074112" lon="14.410070"><ele>184.713</ele><time>2017-06-15T06:23:08Z</time></trkpt><trkpt lat="50.073601" lon="14.410398"><ele>189.551</ele><time>2017-06-15T06:24:05Z</time></trkpt><trkpt lat="50.071486" lon="14.410907"><ele>192.884</ele><time>2017-06-15T06:26:53Z</time></trkpt><trkpt lat="50.071024" lon="14.410939"><ele>190.488</ele><time>2017-06-15T06:27:34Z</time></trkpt><trkpt lat="50.070688" lon="14.410803"><ele>189.089</ele><time>2017-06-15T06:28:15Z</time></trkpt><trkpt lat="50.070274" lon="14.410904"><ele>192.831</ele><time>2017-06-15T06:28:46Z</time></trkpt><trkpt lat="50.070064" lon="14.410946"><ele>190.921</ele><time>2017-06-15T06:29:04Z</time></trkpt><trkpt lat="50.068215" lon="14.411596"><ele>196.777</ele><time>2017-06-15T06:31:42Z</time></trkpt><trkpt lat="50.068203" lon="14.410721"><ele>193.861</ele><time>2017-06-15T06:32:36Z</time></trkpt><trkpt lat="50.067706" lon="14.410786"><ele>195.727</ele><time>2017-06-15T06:33:12Z</time></trkpt><trkpt lat="50.067267" lon="14.410784"><ele>192.408</ele><time>2017-06-15T06:33:45Z</time></trkpt><trkpt lat="50.067081" lon="14.410785"><ele>188.029</ele><time>2017-06-15T06:34:02Z</time></trkpt><trkpt lat="50.066448" lon="14.410924"><ele>191.947</ele><time>2017-06-15T06:34:53Z</time></trkpt><trkpt lat="50.066261" lon="14.410941"><ele>194.365</ele><time>2017-06-15T06:35:05Z</time></trkpt><trkpt lat="50.065525" lon="14.410504"><ele>188.578</ele><time>2017-06-15T06:36:05Z</time></trkpt><trkpt lat="50.065154" lon="14.410292"><ele>177.952</ele><time>2017-06-15T06:36:35Z</time></trkpt><trkpt lat="50.064910" lon="14.410481"><ele>187.143</ele><time>2017-06-15T06:36:51Z</time></trkpt><trkpt lat="50.064339" lon="14.410681"><ele>147.245</ele><time>2017-06-15T06:37:53Z</time></trkpt><trkpt lat="50.064253" lon="14.410857"><ele>146.745</ele><time>2017-06-15T06:37:59Z</time></trkpt><trkpt lat="50.063750" lon="14.410737"><ele>155.327</ele><time>2017-06-15T06:38:31Z</time></trkpt><trkpt lat="50.063165" lon="14.410916"><ele>180.868</ele><time>2017-06-15T06:39:10Z</time></trkpt><trkpt lat="50.062963" lon="14.410978"><ele>184.214</ele><time>2017-06-15T06:39:26Z</time></trkpt><trkpt lat="50.062817" lon="14.411086"><ele>177.908</ele><time>2017-06-15T06:39:41Z</time></trkpt><trkpt lat="50.062167" lon="14.411180"><ele>181.864</ele><time>2017-06-15T06:40:44Z</time></trkpt><trkpt lat="50.062006" lon="14.411386"><ele>162.132</ele><time>2017-06-15T06:41:04Z</time></trkpt><trkpt lat="50.061027" lon="14.411352"><ele>192.850</ele><time>2017-06-15T06:42:16Z</time></trkpt><trkpt lat="50.060578" lon="14.411304"><ele>192.883</ele><time>2017-06-15T06:42:51Z</time></trkpt><trkpt lat="50.060189" lon="14.411305"><ele>178.427</ele><time>2017-06-15T06:43:25Z</time></trkpt><trkpt lat="50.059996" lon="14.411276"><ele>168.848</ele><time>2017-06-15T06:43:42Z</time></trkpt><trkpt lat="50.059812" lon="14.411089"><ele>159.740</ele><time>2017-06-15T06:43:59Z</time></trkpt><trkpt lat="50.059581" lon="14.411221"><ele>154.420</ele><time>2017-06-15T06:44:16Z</time></trkpt><trkpt lat="50.059288" lon="14.411241"><ele>157.359</ele><time>2017-06-15T06:44:35Z</time></trkpt><trkpt lat="50.059015" lon="14.411278"><ele>155.303</ele><time>2017-06-15T06:44:55Z</time></trkpt><trkpt lat="50.058529" lon="14.411209"><ele>152.923</ele><time>2017-06-15T06:45:31Z</time></trkpt><trkpt lat="50.058031" lon="14.411179"><ele>159.208</ele><time>2017-06-15T06:46:03Z</time></trkpt><trkpt lat="50.057703" lon="14.411047"><ele>185.137</ele><time>2017-06-15T06:46:20Z</time></trkpt><trkpt lat="50.057492" lon="14.411019"><ele>188.055</ele><time>2017-06-15T06:46:39Z</time></trkpt><trkpt lat="50.056790" lon="14.410874"><ele>163.523</ele><time>2017-06-15T06:47:36Z</time></trkpt><trkpt lat="50.056708" lon="14.410818"><ele>170.226</ele><time>2017-06-15T06:47:39Z</time></trkpt><trkpt lat="50.056528" lon="14.410821"><ele>177.910</ele><time>2017-06-15T06:47:55Z</time></trkpt><trkpt lat="50.055617" lon="14.410709"><ele>156.381</ele><time>2017-06-15T06:49:07Z</time></trkpt><trkpt lat="50.055428" lon="14.410517"><ele>170.713</ele><time>2017-06-15T06:49:46Z</time></trkpt><trkpt lat="50.055322" lon="14.410528"><ele>173.683</ele><time>2017-06-15T06:50:00Z</time></trkpt><trkpt lat="50.055111" lon="14.410533"><ele>171.757</ele><time>2017-06-15T06:50:20Z</time></trkpt><trkpt lat="50.055041" lon="14.410547"><ele>170.700</ele><time>2017-06-15T06:50:26Z</time></trkpt><trkpt lat="50.054567" lon="14.410599"><ele>158.720</ele><time>2017-06-15T06:51:06Z</time></trkpt><trkpt lat="50.054226" lon="14.410629"><ele>170.208</ele><time>2017-06-15T06:51:27Z</time></trkpt><trkpt lat="50.053979" lon="14.410648"><ele>167.827</ele><time>2017-06-15T06:51:45Z</time></trkpt><trkpt lat="50.051464" lon="14.410999"><ele>161.125</ele><time>2017-06-15T06:54:54Z</time></trkpt><trkpt lat="50.051075" lon="14.410938"><ele>192.893</ele><time>2017-06-15T06:55:24Z</time></trkpt><trkpt lat="50.050946" lon="14.410982"><ele>186.126</ele><time>2017-06-15T06:55:39Z</time></trkpt><trkpt lat="50.050850" lon="14.411060"><ele>169.890</ele><time>2017-06-15T06:55:51Z</time></trkpt><trkpt lat="50.050694" lon="14.411052"><ele>166.471</ele><time>2017-06-15T06:56:02Z</time></trkpt><trkpt lat="50.050319" lon="14.410884"><ele>184.293</ele><time>2017-06-15T06:56:39Z</time></trkpt><trkpt lat="50.050311" lon="14.410478"><ele>192.823</ele><time>2017-06-15T06:56:58Z</time></trkpt><trkpt lat="50.050458" lon="14.410306"><ele>193.397</ele><time>2017-06-15T06:57:13Z</time></trkpt><trkpt lat="50.050929" lon="14.409875"><ele>194.823</ele><time>2017-06-15T06:57:59Z</time></trkpt><trkpt lat="50.050971" lon="14.409450"><ele>199.125</ele><time>2017-06-15T06:58:26Z</time></trkpt><trkpt lat="50.050769" lon="14.409249"><ele>201.508</ele><time>2017-06-15T06:58:50Z</time></trkpt><trkpt lat="50.050035" lon="14.409385"><ele>195.261</ele><time>2017-06-15T06:59:52Z</time></trkpt><trkpt lat="50.049661" lon="14.408953"><ele>201.029</ele><time>2017-06-15T07:00:26Z</time></trkpt><trkpt lat="50.049492" lon="14.408733"><ele>201.047</ele><time>2017-06-15T07:00:43Z</time></trkpt><trkpt lat="50.049166" lon="14.408536"><ele>205.310</ele><time>2017-06-15T07:01:08Z</time></trkpt><trkpt lat="50.048259" lon="14.408546"><ele>198.674</ele><time>2017-06-15T07:02:23Z</time></trkpt><trkpt lat="50.048154" lon="14.408824"><ele>205.845</ele><time>2017-06-15T07:02:50Z</time></trkpt><trkpt lat="50.048015" lon="14.408727"><ele>209.277</ele><time>2017-06-15T07:03:05Z</time></trkpt><trkpt lat="50.047820" lon="14.408650"><ele>209.227</ele><time>2017-06-15T07:03:24Z</time></trkpt><trkpt lat="50.047494" lon="14.408718"><ele>205.369</ele><time>2017-06-15T07:03:57Z</time></trkpt><trkpt lat="50.047498" lon="14.408879"><ele>214.504</ele><time>2017-06-15T07:04:45Z</time></trkpt><trkpt lat="50.047545" lon="14.408850"><ele>218.824</ele><time>2017-06-15T07:05:54Z</time></trkpt><trkpt lat="50.047485" lon="14.408768"><ele>216.408</ele><time>2017-06-15T07:07:16Z</time></trkpt><trkpt lat="50.047485" lon="14.408768"><ele>218.398</ele><time>2017-06-15T07:08:17Z</time></trkpt><trkpt lat="50.047490" lon="14.408756"><ele>216.456</ele><time>2017-06-15T07:08:45Z</time></trkpt><trkpt lat="50.047525" lon="14.408772"><ele>220.224</ele><time>2017-06-15T07:10:05Z</time></trkpt><trkpt lat="50.047429" lon="14.408684"><ele>218.347</ele><time>2017-06-15T07:14:40Z</time></trkpt><trkpt lat="50.047045" lon="14.408652"><ele>202.921</ele><time>2017-06-15T07:15:25Z</time></trkpt><trkpt lat="50.046886" lon="14.408481"><ele>197.612</ele><time>2017-06-15T07:15:45Z</time></trkpt><trkpt lat="50.046682" lon="14.408252"><ele>196.224</ele><time>2017-06-15T07:16:09Z</time></trkpt><trkpt lat="50.046569" lon="14.408178"><ele>200.014</ele><time>2017-06-15T07:16:16Z</time></trkpt><trkpt lat="50.046444" lon="14.408125"><ele>199.687</ele><time>2017-06-15T07:16:29Z</time></trkpt><trkpt lat="50.046079" lon="14.407949"><ele>184.242</ele><time>2017-06-15T07:17:06Z</time></trkpt><trkpt lat="50.045813" lon="14.407773"><ele>184.726</ele><time>2017-06-15T07:17:25Z</time></trkpt><trkpt lat="50.045607" lon="14.407700"><ele>195.708</ele><time>2017-06-15T07:17:38Z</time></trkpt><trkpt lat="50.044431" lon="14.407195"><ele>172.640</ele><time>2017-06-15T07:19:25Z</time></trkpt><trkpt lat="50.044045" lon="14.406859"><ele>191.428</ele><time>2017-06-15T07:19:44Z</time></trkpt><trkpt lat="50.043815" lon="14.406722"><ele>194.846</ele><time>2017-06-15T07:20:01Z</time></trkpt><trkpt lat="50.043648" lon="14.406607"><ele>194.899</ele><time>2017-06-15T07:20:15Z</time></trkpt><trkpt lat="50.043301" lon="14.406145"><ele>188.013</ele><time>2017-06-15T07:20:53Z</time></trkpt><trkpt lat="50.043146" lon="14.405879"><ele>195.214</ele><time>2017-06-15T07:21:07Z</time></trkpt><trkpt lat="50.043017" lon="14.405635"><ele>194.346</ele><time>2017-06-15T07:21:23Z</time></trkpt><trkpt lat="50.042887" lon="14.405369"><ele>190.036</ele><time>2017-06-15T07:21:41Z</time></trkpt><trkpt lat="50.042710" lon="14.405176"><ele>191.989</ele><time>2017-06-15T07:21:57Z</time></trkpt><trkpt lat="50.042494" lon="14.405045"><ele>190.006</ele><time>2017-06-15T07:22:17Z</time></trkpt><trkpt lat="50.042328" lon="14.404950"><ele>196.726</ele><time>2017-06-15T07:22:28Z</time></trkpt><trkpt lat="50.042400" lon="14.405071"><ele>198.608</ele><time>2017-06-15T07:22:40Z</time></trkpt><trkpt lat="50.042593" lon="14.405564"><ele>189.040</ele><time>2017-06-15T07:23:16Z</time></trkpt><trkpt lat="50.042231" lon="14.407754"><ele>180.338</ele><time>2017-06-15T07:25:18Z</time></trkpt><trkpt lat="50.042061" lon="14.407915"><ele>186.156</ele><time>2017-06-15T07:25:37Z</time></trkpt><trkpt lat="50.041780" lon="14.407779"><ele>192.499</ele><time>2017-06-15T07:25:57Z</time></trkpt><trkpt lat="50.037117" lon="14.404516"><ele>196.223</ele><time>2017-06-15T07:32:46Z</time></trkpt><trkpt lat="50.035044" lon="14.403070"><ele>190.054</ele><time>2017-06-15T07:35:32Z</time></trkpt><trkpt lat="50.029611" lon="14.398477"><ele>193.826</ele><time>2017-06-15T07:43:15Z</time></trkpt><trkpt lat="50.028324" lon="14.397365"><ele>181.836</ele><time>2017-06-15T07:45:08Z</time></trkpt><trkpt lat="50.026115" lon="14.396206"><ele>191.441</ele><time>2017-06-15T07:48:01Z</time></trkpt><trkpt lat="50.025299" lon="14.395953"><ele>190.981</ele><time>2017-06-15T07:49:04Z</time></trkpt><trkpt lat="50.024993" lon="14.395864"><ele>192.809</ele><time>2017-06-15T07:49:37Z</time></trkpt><trkpt lat="50.023860" lon="14.395579"><ele>192.808</ele><time>2017-06-15T07:51:33Z</time></trkpt><trkpt lat="50.022308" lon="14.394947"><ele>187.126</ele><time>2017-06-15T07:53:41Z</time></trkpt><trkpt lat="50.019982" lon="14.394988"><ele>192.444</ele><time>2017-06-15T07:56:38Z</time></trkpt><trkpt lat="50.018089" lon="14.394969"><ele>191.942</ele><time>2017-06-15T07:59:27Z</time></trkpt><trkpt lat="50.015892" lon="14.395135"><ele>187.555</ele><time>2017-06-15T08:02:09Z</time></trkpt><trkpt lat="50.010686" lon="14.396314"><ele>202.469</ele><time>2017-06-15T08:08:34Z</time></trkpt><trkpt lat="50.008268" lon="14.396980"><ele>191.970</ele><time>2017-06-15T08:12:18Z</time></trkpt><trkpt lat="50.006679" lon="14.398358"><ele>192.842</ele><time>2017-06-15T08:15:11Z</time></trkpt><trkpt lat="50.006530" lon="14.399060"><ele>194.322</ele><time>2017-06-15T08:15:51Z</time></trkpt><trkpt lat="50.005823" lon="14.399459"><ele>190.996</ele><time>2017-06-15T08:16:55Z</time></trkpt><trkpt lat="50.005601" lon="14.399256"><ele>190.931</ele><time>2017-06-15T08:17:21Z</time></trkpt><trkpt lat="50.005551" lon="14.399160"><ele>188.524</ele><time>2017-06-15T08:17:49Z</time></trkpt><trkpt lat="50.005624" lon="14.399436"><ele>197.208</ele><time>2017-06-15T08:30:09Z</time></trkpt><trkpt lat="50.004039" lon="14.400596"><ele>186.111</ele><time>2017-06-15T08:35:31Z</time></trkpt><trkpt lat="50.002680" lon="14.401092"><ele>186.619</ele><time>2017-06-15T08:37:25Z</time></trkpt><trkpt lat="50.002258" lon="14.401230"><ele>181.837</ele><time>2017-06-15T08:38:40Z</time></trkpt><trkpt lat="50.002198" lon="14.401206"><ele>185.630</ele><time>2017-06-15T08:39:26Z</time></trkpt><trkpt lat="50.002071" lon="14.401177"><ele>186.144</ele><time>2017-06-15T08:39:39Z</time></trkpt><trkpt lat="50.001851" lon="14.401169"><ele>187.115</ele><time>2017-06-15T08:39:57Z</time></trkpt><trkpt lat="50.001452" lon="14.401151"><ele>188.517</ele><time>2017-06-15T08:40:30Z</time></trkpt><trkpt lat="49.997788" lon="14.401368"><ele>187.187</ele><time>2017-06-15T08:45:28Z</time></trkpt><trkpt lat="49.996878" lon="14.401118"><ele>188.514</ele><time>2017-06-15T08:46:40Z</time></trkpt><trkpt lat="49.996392" lon="14.400849"><ele>186.654</ele><time>2017-06-15T08:47:20Z</time></trkpt><trkpt lat="49.995405" lon="14.399964"><ele>187.509</ele><time>2017-06-15T08:48:51Z</time></trkpt><trkpt lat="49.994934" lon="14.398336"><ele>190.408</ele><time>2017-06-15T08:51:12Z</time></trkpt><trkpt lat="49.994824" lon="14.398274"><ele>190.433</ele><time>2017-06-15T08:51:29Z</time></trkpt><trkpt lat="49.994636" lon="14.398173"><ele>190.061</ele><time>2017-06-15T08:51:44Z</time></trkpt><trkpt lat="49.994486" lon="14.397951"><ele>186.169</ele><time>2017-06-15T08:52:05Z</time></trkpt><trkpt lat="49.994444" lon="14.397708"><ele>182.792</ele><time>2017-06-15T08:52:25Z</time></trkpt><trkpt lat="49.994322" lon="14.397457"><ele>180.886</ele><time>2017-06-15T08:52:55Z</time></trkpt><trkpt lat="49.994268" lon="14.397235"><ele>183.267</ele><time>2017-06-15T08:53:16Z</time></trkpt><trkpt lat="49.994261" lon="14.397234"><ele>185.649</ele><time>2017-06-15T08:53:34Z</time></trkpt><trkpt lat="49.994226" lon="14.397087"><ele>184.769</ele><time>2017-06-15T08:54:21Z</time></trkpt><trkpt lat="49.994194" lon="14.397057"><ele>184.215</ele><time>2017-06-15T08:54:43Z</time></trkpt><trkpt lat="49.994076" lon="14.396614"><ele>187.165</ele><time>2017-06-15T08:55:12Z</time></trkpt><trkpt lat="49.993855" lon="14.395810"><ele>182.311</ele><time>2017-06-15T08:55:56Z</time></trkpt><trkpt lat="49.993766" lon="14.394777"><ele>183.708</ele><time>2017-06-15T08:57:46Z</time></trkpt><trkpt lat="49.993925" lon="14.394391"><ele>188.513</ele><time>2017-06-15T08:58:08Z</time></trkpt><trkpt lat="49.994016" lon="14.394134"><ele>189.591</ele><time>2017-06-15T08:58:22Z</time></trkpt><trkpt lat="49.994306" lon="14.393379"><ele>186.679</ele><time>2017-06-15T08:59:07Z</time></trkpt><trkpt lat="49.994072" lon="14.392007"><ele>189.582</ele><time>2017-06-15T09:00:21Z</time></trkpt><trkpt lat="49.993800" lon="14.389416"><ele>180.886</ele><time>2017-06-15T09:02:32Z</time></trkpt><trkpt lat="49.993017" lon="14.389699"><ele>186.627</ele><time>2017-06-15T09:03:38Z</time></trkpt><trkpt lat="49.992796" lon="14.389776"><ele>185.169</ele><time>2017-06-15T09:03:55Z</time></trkpt><trkpt lat="49.992524" lon="14.389631"><ele>183.719</ele><time>2017-06-15T09:04:17Z</time></trkpt><trkpt lat="49.991991" lon="14.388552"><ele>185.168</ele><time>2017-06-15T09:05:23Z</time></trkpt><trkpt lat="49.991367" lon="14.387713"><ele>187.542</ele><time>2017-06-15T09:06:26Z</time></trkpt><trkpt lat="49.991170" lon="14.387500"><ele>186.626</ele><time>2017-06-15T09:06:44Z</time></trkpt><trkpt lat="49.990555" lon="14.386672"><ele>188.508</ele><time>2017-06-15T09:07:47Z</time></trkpt><trkpt lat="49.990067" lon="14.386224"><ele>186.638</ele><time>2017-06-15T09:08:31Z</time></trkpt><trkpt lat="49.989652" lon="14.385841"><ele>180.886</ele><time>2017-06-15T09:09:10Z</time></trkpt><trkpt lat="49.989054" lon="14.385262"><ele>187.194</ele><time>2017-06-15T09:10:17Z</time></trkpt><trkpt lat="49.987545" lon="14.383657"><ele>187.157</ele><time>2017-06-15T09:12:43Z</time></trkpt><trkpt lat="49.987008" lon="14.383486"><ele>187.521</ele><time>2017-06-15T09:13:42Z</time></trkpt><trkpt lat="49.986029" lon="14.382837"><ele>185.152</ele><time>2017-06-15T09:15:15Z</time></trkpt><trkpt lat="49.985645" lon="14.382238"><ele>184.734</ele><time>2017-06-15T09:15:57Z</time></trkpt><trkpt lat="49.985198" lon="14.381457"><ele>180.854</ele><time>2017-06-15T09:16:51Z</time></trkpt><trkpt lat="49.985007" lon="14.380888"><ele>177.517</ele><time>2017-06-15T09:17:24Z</time></trkpt><trkpt lat="49.984962" lon="14.380475"><ele>179.487</ele><time>2017-06-15T09:17:43Z</time></trkpt><trkpt lat="49.984909" lon="14.380135"><ele>176.015</ele><time>2017-06-15T09:18:02Z</time></trkpt><trkpt lat="49.984873" lon="14.379047"><ele>178.908</ele><time>2017-06-15T09:18:54Z</time></trkpt><trkpt lat="49.984923" lon="14.378673"><ele>182.713</ele><time>2017-06-15T09:19:13Z</time></trkpt><trkpt lat="49.985008" lon="14.378329"><ele>180.831</ele><time>2017-06-15T09:19:31Z</time></trkpt><trkpt lat="49.985067" lon="14.377966"><ele>183.719</ele><time>2017-06-15T09:19:48Z</time></trkpt><trkpt lat="49.985141" lon="14.377637"><ele>183.242</ele><time>2017-06-15T09:20:04Z</time></trkpt><trkpt lat="49.985185" lon="14.377312"><ele>183.786</ele><time>2017-06-15T09:20:21Z</time></trkpt><trkpt lat="49.985481" lon="14.372471"><ele>187.137</ele><time>2017-06-15T09:24:20Z</time></trkpt><trkpt lat="49.985557" lon="14.372193"><ele>184.729</ele><time>2017-06-15T09:24:50Z</time></trkpt><trkpt lat="49.985714" lon="14.372250"><ele>189.039</ele><time>2017-06-15T09:27:27Z</time></trkpt><trkpt lat="49.985638" lon="14.372155"><ele>198.179</ele><time>2017-06-15T09:45:23Z</time></trkpt><trkpt lat="49.985644" lon="14.372159"><ele>198.105</ele><time>2017-06-15T09:45:46Z</time></trkpt><trkpt lat="49.985524" lon="14.372132"><ele>191.925</ele><time>2017-06-15T09:54:31Z</time></trkpt><trkpt lat="49.985541" lon="14.371984"><ele>191.908</ele><time>2017-06-15T09:54:45Z</time></trkpt><trkpt lat="49.985587" lon="14.371461"><ele>191.949</ele><time>2017-06-15T09:55:20Z</time></trkpt><trkpt lat="49.985575" lon="14.370562"><ele>196.297</ele><time>2017-06-15T09:56:17Z</time></trkpt><trkpt lat="49.985748" lon="14.370457"><ele>194.855</ele><time>2017-06-15T09:56:37Z</time></trkpt><trkpt lat="49.985774" lon="14.369897"><ele>196.288</ele><time>2017-06-15T09:57:20Z</time></trkpt><trkpt lat="49.985708" lon="14.369141"><ele>192.882</ele><time>2017-06-15T09:58:08Z</time></trkpt><trkpt lat="49.985433" lon="14.367154"><ele>191.993</ele><time>2017-06-15T10:00:15Z</time></trkpt><trkpt lat="49.985028" lon="14.365671"><ele>193.395</ele><time>2017-06-15T10:01:51Z</time></trkpt><trkpt lat="49.985223" lon="14.365398"><ele>203.915</ele><time>2017-06-15T10:02:17Z</time></trkpt><trkpt lat="49.985390" lon="14.365251"><ele>207.785</ele><time>2017-06-15T10:02:34Z</time></trkpt><trkpt lat="49.985542" lon="14.365123"><ele>207.789</ele><time>2017-06-15T10:02:49Z</time></trkpt><trkpt lat="49.985652" lon="14.365124"><ele>200.017</ele><time>2017-06-15T10:03:02Z</time></trkpt><trkpt lat="49.985760" lon="14.364980"><ele>198.608</ele><time>2017-06-15T10:03:17Z</time></trkpt><trkpt lat="49.985977" lon="14.364379"><ele>216.910</ele><time>2017-06-15T10:07:04Z</time></trkpt><trkpt lat="49.985888" lon="14.364338"><ele>213.088</ele><time>2017-06-15T10:07:55Z</time></trkpt><trkpt lat="49.986032" lon="14.364537"><ele>207.756</ele><time>2017-06-15T10:08:49Z</time></trkpt><trkpt lat="49.985805" lon="14.364265"><ele>203.969</ele><time>2017-06-15T10:09:22Z</time></trkpt><trkpt lat="49.985936" lon="14.364580"><ele>193.343</ele><time>2017-06-15T10:10:06Z</time></trkpt><trkpt lat="49.985954" lon="14.364568"><ele>207.324</ele><time>2017-06-15T10:12:09Z</time></trkpt><trkpt lat="49.986117" lon="14.364519"><ele>215.446</ele><time>2017-06-15T10:13:26Z</time></trkpt></trkseg></trk></gpx>